[{"OBJECT_NAME":"CALSPHERE 1","OBJECT_ID":"1964-063C","EPOCH":"2026-03-29T04:46:41.797632","MEAN_MOTION":13.76523737,"ECCENTRICITY":0.0025571,"INCLINATION":90.2181,"RA_OF_ASC_NODE":69.8964,"ARG_OF_PERICENTER":169.0644,"MEAN_ANOMALY":202.9437,"EPHEMERIS_TYPE":0,"CLASSIFICATION_TYPE":"U","NORAD_CAT_ID":900,"ELEMENT_SET_NO":999,"REV_AT_EPOCH":6042,"BSTAR":0.00077417,"MEAN_MOTION_DOT":7.69e-6,"MEAN_MOTION_DDOT":0},{"OBJECT_NAME":"CALSPHERE 2","OBJECT_ID":"1964-063E","EPOCH":"2026-03-29T05:15:02.674944","MEAN_MOTION":13.52893789,"ECCENTRICITY":0.0020612,"INCLINATION":90.2301,"RA_OF_ASC_NODE":73.8876,"ARG_OF_PERICENTER":98.6094,"MEAN_ANOMALY":273.7882,"EPHEMERIS_TYPE":0,"CLASSIFICATION_TYPE":"U","NORAD_CAT_ID":902,"ELEMENT_SET_NO":999,"REV_AT_EPOCH":84545,"BSTAR":0.00010144,"MEAN_MOTION_DOT":7.7e-7,"MEAN_MOTION_DDOT":0},{"OBJECT_NAME":"LCS 1","OBJECT_ID":"1965-034C","EPOCH":"2026-03-29T04:44:06.937728","MEAN_MOTION":9.8930985,"ECCENTRICITY":0.0013312,"INCLINATION":32.1472,"RA_OF_ASC_NODE":6.9468,"ARG_OF_PERICENTER":199.1828,"MEAN_ANOMALY":160.8168,"EPHEMERIS_TYPE":0,"CLASSIFICATION_TYPE":"U","NORAD_CAT_ID":1361,"ELEMENT_SET_NO":999,"REV_AT_EPOCH":20196,"BSTAR":-0.00014772,"MEAN_MOTION_DOT":7.0e-8,"MEAN_MOTION_DDOT":0},{"OBJECT_NAME":"TEMPSAT 1","OBJECT_ID":"1965-065E","EPOCH":"2026-03-28T20:48:07.956000","MEAN_MOTION":13.33590301,"ECCENTRICITY":0.00714735,"INCLINATION":89.9976,"RA_OF_ASC_NODE":212.581,"ARG_OF_PERICENTER":113.8002,"MEAN_ANOMALY":0.4144,"EPHEMERIS_TYPE":0,"CLASSIFICATION_TYPE":"U","NORAD_CAT_ID":1512,"ELEMENT_SET_NO":999,"REV_AT_EPOCH":94934,"BSTAR":4.6505897e-5,"MEAN_MOTION_DOT":3.3e-7,"MEAN_MOTION_DDOT":0},{"OBJECT_NAME":"CALSPHERE 4A","OBJECT_ID":"1965-065H","EPOCH":"2026-03-29T02:27:29.176128","MEAN_MOTION":13.36262842,"ECCENTRICITY":0.006845,"INCLINATION":89.8994,"RA_OF_ASC_NODE":123.2851,"ARG_OF_PERICENTER":331.1425,"MEAN_ANOMALY":82.7348,"EPHEMERIS_TYPE":0,"CLASSIFICATION_TYPE":"U","NORAD_CAT_ID":1520,"ELEMENT_SET_NO":999,"REV_AT_EPOCH":95201,"BSTAR":0.00020533,"MEAN_MOTION_DOT":1.16e-6,"MEAN_MOTION_DDOT":0},{"OBJECT_NAME":"OPS 5712 (P/L 160)","OBJECT_ID":"1967-053A","EPOCH":"2026-03-29T03:26:26.462112","MEAN_MOTION":14.76546803,"ECCENTRICITY":0.0003078,"INCLINATION":69.916,"RA_OF_ASC_NODE":234.3093,"ARG_OF_PERICENTER":217.2836,"MEAN_ANOMALY":142.8097,"EPHEMERIS_TYPE":0,"CLASSIFICATION_TYPE":"U","NORAD_CAT_ID":2826,"ELEMENT_SET_NO":999,"REV_AT_EPOCH":5441,"BSTAR":0.0021015,"MEAN_MOTION_DOT":0.00014633,"MEAN_MOTION_DDOT":0},{"OBJECT_NAME":"OPS 5712 (P/L 153)","OBJECT_ID":"1967-053H","EPOCH":"2026-03-28T23:48:49.378752","MEAN_MOTION":13.96815735,"ECCENTRICITY":0.0009738,"INCLINATION":69.9726,"RA_OF_ASC_NODE":287.1974,"ARG_OF_PERICENTER":291.5226,"MEAN_ANOMALY":68.4841,"EPHEMERIS_TYPE":0,"CLASSIFICATION_TYPE":"U","NORAD_CAT_ID":2874,"ELEMENT_SET_NO":999,"REV_AT_EPOCH":99558,"BSTAR":8.4429e-5,"MEAN_MOTION_DOT":6.4e-7,"MEAN_MOTION_DDOT":0},{"OBJECT_NAME":"RIGIDSPHERE 2 (LCS 4)","OBJECT_ID":"1971-067E","EPOCH":"2026-03-29T03:48:26.560800","MEAN_MOTION":14.37771861,"ECCENTRICITY":0.0061334,"INCLINATION":87.6281,"RA_OF_ASC_NODE":1.0181,"ARG_OF_PERICENTER":136.6381,"MEAN_ANOMALY":223.9668,"EPHEMERIS_TYPE":0,"CLASSIFICATION_TYPE":"U","NORAD_CAT_ID":5398,"ELEMENT_SET_NO":999,"REV_AT_EPOCH":86238,"BSTAR":0.00027603,"MEAN_MOTION_DOT":8.67e-6,"MEAN_MOTION_DDOT":0},{"OBJECT_NAME":"COSMOS 2493 (SKRL-756 1)","OBJECT_ID":"2013-078A","EPOCH":"2026-03-29T03:19:37.389216","MEAN_MOTION":15.01717762,"ECCENTRICITY":0.0013853,"INCLINATION":82.4157,"RA_OF_ASC_NODE":339.485,"ARG_OF_PERICENTER":148.4861,"MEAN_ANOMALY":211.7196,"EPHEMERIS_TYPE":0,"CLASSIFICATION_TYPE":"U","NORAD_CAT_ID":39490,"ELEMENT_SET_NO":999,"REV_AT_EPOCH":66594,"BSTAR":0.00024558,"MEAN_MOTION_DOT":3.226e-5,"MEAN_MOTION_DDOT":0},{"OBJECT_NAME":"COSMOS 2494 (SKRL-756 2)","OBJECT_ID":"2013-078B","EPOCH":"2026-03-29T03:29:57.191712","MEAN_MOTION":15.04363532,"ECCENTRICITY":0.0017441,"INCLINATION":82.4143,"RA_OF_ASC_NODE":329.2003,"ARG_OF_PERICENTER":113.7373,"MEAN_ANOMALY":246.5685,"EPHEMERIS_TYPE":0,"CLASSIFICATION_TYPE":"U","NORAD_CAT_ID":39491,"ELEMENT_SET_NO":999,"REV_AT_EPOCH":66677,"BSTAR":0.00038883,"MEAN_MOTION_DOT":5.468e-5,"MEAN_MOTION_DDOT":0}]
