CALSPHERE 1             
1 00900U 64063C   26088.19909488  .00000769  00000+0  77417-3 0  9990
2 00900  90.2181  69.8964 0025571 169.0644 202.9437 13.76523737 60427
CALSPHERE 2             
1 00902U 64063E   26088.21878096  .00000077  00000+0  10144-3 0  9991
2 00902  90.2301  73.8876 0020612  98.6094 273.7882 13.52893789845452
LCS 1                   
1 01361U 65034C   26088.19730252  .00000007  00000+0 -14772-3 0  9993
2 01361  32.1472   6.9468 0013312 199.1828 160.8168  9.89309850201962
TEMPSAT 1               
1 01512U 65065E   26087.86675875  .00000033  00000+0  46506-4 0  9996
2 01512  89.9976 212.5810 0071473 113.8002   0.4144 13.33590301949345
CALSPHERE 4A            
1 01520U 65065H   26088.10242102  .00000116  00000+0  20533-3 0  9999
2 01520  89.8994 123.2851 0068450 331.1425  82.7348 13.36262842952017
OPS 5712 (P/L 160)      
1 02826U 67053A   26088.14336183  .00014633  00000+0  21015-2 0  9999
2 02826  69.9160 234.3093 0003078 217.2836 142.8097 14.76546803 54411
OPS 5712 (P/L 153)      
1 02874U 67053H   26087.99223818  .00000064  00000+0  84429-4 0  9997
2 02874  69.9726 287.1974 0009738 291.5226  68.4841 13.96815735995589
RIGIDSPHERE 2 (LCS 4)   
1 05398U 71067E   26088.15864075  .00000867  00000+0  27603-3 0  9997
2 05398  87.6281   1.0181 0061334 136.6381 223.9668 14.37771861862383
COSMOS 2493 (SKRL-756 1)
1 39490U 13078A   26088.13862719  .00003226  00000+0  24558-3 0  9994
2 39490  82.4157 339.4850 0013853 148.4861 211.7196 15.01717762665942
COSMOS 2494 (SKRL-756 2)
1 39491U 13078B   26088.14580083  .00005468  00000+0  38883-3 0  9993
2 39491  82.4143 329.2003 0017441 113.7373 246.5685 15.04363532666771
